[Satellite]
VERSION=1.1
NAME=BREEZE-M DEB [TANK]
NICKNAME=BREEZE-M DEB [TANK]
TLE1=1 42751U 17032C   17186.30023981  .00000613  00000-0  14558-3 0  9997
TLE2=2 42751  49.7095 295.7931 4654543  13.8628 355.4851  6.18649359  1665
